COSMOS 2493 (SKRL-756 1)
1 39490U 13078A   26068.88109627  .00005252  00000+0  40276-3 0  9992
2 39490  82.4165 358.3033 0011855 214.7485 145.2966 15.01584319663059
STARLINK-5140           
1 56147U 23046BH  26068.10185438  .00000323  00000+0  39003-4 0  9996
2 56147  43.0008 110.9228 0001171 272.7156  87.3553 15.02534260162562
